*******************************************************************************
Ephemeris / WWW_USER Mon Mar 24 11:44:21 2025 Pasadena, USA      / Horizons    
*******************************************************************************
Target body name: (2018 RD5)                      {source: JPL#11}
Center body name: Earth (399)                     {source: DE441}
Center-site name: Gemini South Obs., Cerro Pachon
*******************************************************************************
Start time      : A.D. 2018-Aug-09 22:23:00.0000 UT      
Stop  time      : A.D. 2018-Aug-10 11:13:00.0000 UT      
Step-size       : 1 minutes
*******************************************************************************
Target pole/equ : undefined
Target radii    : undefined                                                    
Center geodetic : 289.2634, -30.2406227, 2.71233  {E-lon(deg),Lat(deg),Alt(km)}
Center cylindric: 289.2634,5517.21435,-3194.81213 {E-lon(deg),Dxy(km),Dz(km)}
Center pole/equ : ITRF93                          {East-longitude positive}
Center radii    : 6378.137, 6378.137, 6356.752 km {Equator_a, b, pole_c}       
Target primary  : Sun
Vis. interferer : MOON (R_eq= 1737.400) km        {source: DE441}
Rel. light bend : Sun                             {source: DE441}
Rel. lght bnd GM: 1.3271E+11 km^3/s^2                                          
Small-body perts: Yes                             {source: SB441-N16}
Atmos refraction: NO (AIRLESS)
RA format       : HMS
Time format     : CAL 
Calendar mode   : Mixed Julian/Gregorian
RTS-only print  : NO       
EOP file        : eop.250321.p250617                                           
EOP coverage    : DATA-BASED 1962-JAN-20 TO 2025-MAR-21. PREDICTS-> 2025-JUN-16
Units conversion: 1 au= 149597870.700 km, c= 299792.458 km/s, 1 day= 86400.0 s 
Table cut-offs 1: Elevation (-90.0deg=NO ),Airmass (>38.000=NO), Daylight (YES)
Table cut-offs 2: Solar elongation (  0.0,180.0=NO ),Local Hour Angle( 0.0=NO )
Table cut-offs 3: RA/DEC angular rate (     0.0=NO )                           
*******************************************************************************
Initial IAU76/J2000 heliocentric ecliptic osculating elements (au, days, deg.):
  EPOCH=  2458378.5 ! 2018-Sep-17.00 (TDB)         Residual RMS= .55339        
   EC= .2891632988519429   QR= 1.009650912138325   TP= 2458360.6433297051      
   OM= 171.0145363394364   W=  163.7983400129293   IN= 8.474307805886117       
  Equivalent ICRF heliocentric cartesian coordinates (au, au/d):
   X= 1.017757009008053E+00  Y=-8.967367621791844E-02  Z=-4.840656937149759E-02
  VX= 3.309922676318766E-03 VY= 1.832358809606965E-02 VZ= 4.854018792897502E-03
Asteroid physical parameters (km, seconds, rotational period in hours):        
   GM= n.a.                RAD= n.a.               ROTPER= n.a.                
   H= 25.9                 G= .150                 B-V= n.a.                   
                           ALBEDO= n.a.            STYP= n.a.                  
*******************************************************************************
 Date__(UT)__HR:MN     R.A._________(ICRF)_________DEC
******************************************************
$$SOE
 2018-Aug-10 06:35     16 11 57.135780 +32 45 06.26072
 2018-Aug-10 06:36     16 11 57.169360 +32 45 06.29093
 2018-Aug-10 06:37     16 11 57.203038 +32 45 06.32129
 2018-Aug-10 06:38     16 11 57.236815 +32 45 06.35182
 2018-Aug-10 06:39     16 11 57.270690 +32 45 06.38250
 2018-Aug-10 06:40     16 11 57.304663 +32 45 06.41335
 2018-Aug-10 06:41     16 11 57.338734 +32 45 06.44437
 2018-Aug-10 06:42     16 11 57.372904 +32 45 06.47556
 2018-Aug-10 06:43     16 11 57.407171 +32 45 06.50692
 2018-Aug-10 06:44     16 11 57.441536 +32 45 06.53846
 2018-Aug-10 06:45     16 11 57.475999 +32 45 06.57018
 2018-Aug-10 06:46     16 11 57.510559 +32 45 06.60208
 2018-Aug-10 06:47     16 11 57.545217 +32 45 06.63417
 2018-Aug-10 06:48     16 11 57.579973 +32 45 06.66644
 2018-Aug-10 06:49     16 11 57.614825 +32 45 06.69890
 2018-Aug-10 06:50     16 11 57.649775 +32 45 06.73156
 2018-Aug-10 06:51     16 11 57.684821 +32 45 06.76442
 2018-Aug-10 06:52     16 11 57.719965 +32 45 06.79747
 2018-Aug-10 06:53     16 11 57.755205 +32 45 06.83073
 2018-Aug-10 06:54     16 11 57.790542 +32 45 06.86419
 2018-Aug-10 06:55     16 11 57.825975 +32 45 06.89785
 2018-Aug-10 06:56     16 11 57.861505 +32 45 06.93173
 2018-Aug-10 06:57     16 11 57.897131 +32 45 06.96583
 2018-Aug-10 06:58     16 11 57.932853 +32 45 07.00013
 2018-Aug-10 06:59     16 11 57.968671 +32 45 07.03466
 2018-Aug-10 07:00     16 11 58.004584 +32 45 07.06941
 2018-Aug-10 07:01     16 11 58.040594 +32 45 07.10439
 2018-Aug-10 07:02     16 11 58.076699 +32 45 07.13959
 2018-Aug-10 07:03     16 11 58.112899 +32 45 07.17502
 2018-Aug-10 07:04     16 11 58.149194 +32 45 07.21069
 2018-Aug-10 07:05     16 11 58.185585 +32 45 07.24659
 2018-Aug-10 07:06     16 11 58.222070 +32 45 07.28273
 2018-Aug-10 07:07     16 11 58.258651 +32 45 07.31911
 2018-Aug-10 07:08     16 11 58.295326 +32 45 07.35573
 2018-Aug-10 07:09     16 11 58.332095 +32 45 07.39261
 2018-Aug-10 07:10     16 11 58.368959 +32 45 07.42973
 2018-Aug-10 07:11     16 11 58.405917 +32 45 07.46710
 2018-Aug-10 07:12     16 11 58.442968 +32 45 07.50473
 2018-Aug-10 07:13     16 11 58.480114 +32 45 07.54262
 2018-Aug-10 07:14     16 11 58.517353 +32 45 07.58077
 2018-Aug-10 07:15     16 11 58.554686 +32 45 07.61918
 2018-Aug-10 07:16     16 11 58.592113 +32 45 07.65786
 2018-Aug-10 07:17     16 11 58.629632 +32 45 07.69681
 2018-Aug-10 07:18     16 11 58.667244 +32 45 07.73603
 2018-Aug-10 07:19     16 11 58.704949 +32 45 07.77552
 2018-Aug-10 07:20     16 11 58.742747 +32 45 07.81529
 2018-Aug-10 07:21     16 11 58.780637 +32 45 07.85535
 2018-Aug-10 07:22     16 11 58.818620 +32 45 07.89568
 2018-Aug-10 07:23     16 11 58.856695 +32 45 07.93630
 2018-Aug-10 07:24     16 11 58.894861 +32 45 07.97720
 2018-Aug-10 07:25     16 11 58.933120 +32 45 08.01840
 2018-Aug-10 07:26     16 11 58.971470 +32 45 08.05989
 2018-Aug-10 07:27     16 11 59.009911 +32 45 08.10168
 2018-Aug-10 07:28     16 11 59.048443 +32 45 08.14377
 2018-Aug-10 07:29     16 11 59.087067 +32 45 08.18615
 2018-Aug-10 07:30     16 11 59.125781 +32 45 08.22884
 2018-Aug-10 07:31     16 11 59.164586 +32 45 08.27184
 2018-Aug-10 07:32     16 11 59.203481 +32 45 08.31515
 2018-Aug-10 07:33     16 11 59.242467 +32 45 08.35877
 2018-Aug-10 07:34     16 11 59.281543 +32 45 08.40270
 2018-Aug-10 07:35     16 11 59.320708 +32 45 08.44695
 2018-Aug-10 07:36     16 11 59.359963 +32 45 08.49152
 2018-Aug-10 07:37     16 11 59.399307 +32 45 08.53642
 2018-Aug-10 07:38     16 11 59.438741 +32 45 08.58164
 2018-Aug-10 07:39     16 11 59.478264 +32 45 08.62718
 2018-Aug-10 07:40     16 11 59.517875 +32 45 08.67306
 2018-Aug-10 07:41     16 11 59.557575 +32 45 08.71927
 2018-Aug-10 07:42     16 11 59.597363 +32 45 08.76582
 2018-Aug-10 07:43     16 11 59.637240 +32 45 08.81270
 2018-Aug-10 07:44     16 11 59.677204 +32 45 08.85992
 2018-Aug-10 07:45     16 11 59.717257 +32 45 08.90749
 2018-Aug-10 07:46     16 11 59.757396 +32 45 08.95541
 2018-Aug-10 07:47     16 11 59.797623 +32 45 09.00367
 2018-Aug-10 07:48     16 11 59.837937 +32 45 09.05228
 2018-Aug-10 07:49     16 11 59.878338 +32 45 09.10125
 2018-Aug-10 07:50     16 11 59.918826 +32 45 09.15057
 2018-Aug-10 07:51     16 11 59.959400 +32 45 09.20025
 2018-Aug-10 07:52     16 12 00.000060 +32 45 09.25029
 2018-Aug-10 07:53     16 12 00.040806 +32 45 09.30070
 2018-Aug-10 07:54     16 12 00.081638 +32 45 09.35147
 2018-Aug-10 07:55     16 12 00.122555 +32 45 09.40261
 2018-Aug-10 07:56     16 12 00.163557 +32 45 09.45413
 2018-Aug-10 07:57     16 12 00.204644 +32 45 09.50601
 2018-Aug-10 07:58     16 12 00.245817 +32 45 09.55827
 2018-Aug-10 07:59     16 12 00.287073 +32 45 09.61092
 2018-Aug-10 08:00     16 12 00.328414 +32 45 09.66394
 2018-Aug-10 08:01     16 12 00.369839 +32 45 09.71734
 2018-Aug-10 08:02     16 12 00.411348 +32 45 09.77113
 2018-Aug-10 08:03     16 12 00.452940 +32 45 09.82531
 2018-Aug-10 08:04     16 12 00.494616 +32 45 09.87989
 2018-Aug-10 08:05     16 12 00.536374 +32 45 09.93485
 2018-Aug-10 08:06     16 12 00.578216 +32 45 09.99021
 2018-Aug-10 08:07     16 12 00.620140 +32 45 10.04597
 2018-Aug-10 08:08     16 12 00.662146 +32 45 10.10213
 2018-Aug-10 08:09     16 12 00.704234 +32 45 10.15869
 2018-Aug-10 08:10     16 12 00.746404 +32 45 10.21566
 2018-Aug-10 08:11     16 12 00.788656 +32 45 10.27303
 2018-Aug-10 08:12     16 12 00.830989 +32 45 10.33082
 2018-Aug-10 08:13     16 12 00.873403 +32 45 10.38902
 2018-Aug-10 08:14     16 12 00.915897 +32 45 10.44763
 2018-Aug-10 08:15     16 12 00.958472 +32 45 10.50666
 2018-Aug-10 08:16     16 12 01.001127 +32 45 10.56611
 2018-Aug-10 08:17     16 12 01.043863 +32 45 10.62599
 2018-Aug-10 08:18     16 12 01.086677 +32 45 10.68628
 2018-Aug-10 08:19     16 12 01.129572 +32 45 10.74701
 2018-Aug-10 08:20     16 12 01.172545 +32 45 10.80816
 2018-Aug-10 08:21     16 12 01.215597 +32 45 10.86974
 2018-Aug-10 08:22     16 12 01.258728 +32 45 10.93176
 2018-Aug-10 08:23     16 12 01.301937 +32 45 10.99421
 2018-Aug-10 08:24     16 12 01.345224 +32 45 11.05710
 2018-Aug-10 08:25     16 12 01.388589 +32 45 11.12044
 2018-Aug-10 08:26     16 12 01.432031 +32 45 11.18421
 2018-Aug-10 08:27     16 12 01.475551 +32 45 11.24843
 2018-Aug-10 08:28     16 12 01.519147 +32 45 11.31310
 2018-Aug-10 08:29     16 12 01.562820 +32 45 11.37822
 2018-Aug-10 08:30     16 12 01.606569 +32 45 11.44379
 2018-Aug-10 08:31     16 12 01.650394 +32 45 11.50981
 2018-Aug-10 08:32     16 12 01.694295 +32 45 11.57629
 2018-Aug-10 08:33     16 12 01.738272 +32 45 11.64322
 2018-Aug-10 08:34     16 12 01.782324 +32 45 11.71062
 2018-Aug-10 08:35     16 12 01.826450 +32 45 11.77848
 2018-Aug-10 08:36     16 12 01.870651 +32 45 11.84681
 2018-Aug-10 08:37     16 12 01.914927 +32 45 11.91560
